[{"OBJECT_NAME":"ION SCV-004","OBJECT_ID":"2022-002K","EPOCH":"2026-03-09T16:32:03.244416","MEAN_MOTION":15.29369331,"ECCENTRICITY":0.00072157,"INCLINATION":97.2961,"RA_OF_ASC_NODE":128.2294,"ARG_OF_PERICENTER":1.6783,"MEAN_ANOMALY":358.448,"EPHEMERIS_TYPE":0,"CLASSIFICATION_TYPE":"U","NORAD_CAT_ID":50993,"ELEMENT_SET_NO":999,"REV_AT_EPOCH":23008,"BSTAR":0.00023198467,"MEAN_MOTION_DOT":6.538e-5,"MEAN_MOTION_DDOT":0},{"OBJECT_NAME":"STARLINK-35366","OBJECT_ID":"2025-263AD","EPOCH":"2026-03-09T03:16:21.009792","MEAN_MOTION":15.27591667,"ECCENTRICITY":0.00072204,"INCLINATION":43.0014,"RA_OF_ASC_NODE":353.8669,"ARG_OF_PERICENTER":234.1942,"MEAN_ANOMALY":125.8239,"EPHEMERIS_TYPE":0,"CLASSIFICATION_TYPE":"U","NORAD_CAT_ID":66512,"ELEMENT_SET_NO":999,"REV_AT_EPOCH":1881,"BSTAR":0.0010385692,"MEAN_MOTION_DOT":0.00028456,"MEAN_MOTION_DDOT":0}]
